H1 CPF 01  gfz 2022 10 30 13  8032 tandemx   
H2 1003001  6202 36605    2022 10 30 12 59 42 2022 11 04 00 00 42   120 1 1  0 0 0
H9
10 0 59885  35982.000000  0   -2939283.312   3700963.807  -5019631.906
10 0 59885  36102.000000  0   -3145429.957   4311958.788  -4363555.722
10 0 59885  36222.000000  0   -3286808.409   4851000.073  -3631048.190
10 0 59885  36342.000000  0   -3362250.131   5307477.143  -2834869.769
10 0 59885  36462.000000  0   -3371905.769   5672191.980  -1988928.616
10 0 59885  36582.000000  0   -3317223.431   5937553.878  -1108040.429
10 0 59885  36702.000000  0   -3200898.784   6097745.370   -207666.614
10 0 59885  36822.000000  0   -3026800.823   6148854.201    696360.934
10 0 59885  36942.000000  0   -2799873.846   6088970.655   1588127.210
10 0 59885  37062.000000  0   -2526014.078   5918242.171   2451925.574
10 0 59885  37182.000000  0   -2211927.379   5638884.630   3272543.226
10 0 59885  37302.000000  0   -1864972.918   5255152.535   4035535.271
10 0 59885  37422.000000  0   -1492996.143   4773269.058   4727483.188
10 0 59885  37542.000000  0   -1104154.317   4201317.549   5336232.697
10 0 59885  37662.000000  0    -706739.023   3549097.025   5851105.639
10 0 59885  37782.000000  0    -309001.680   2827945.879   6263083.367
10 0 59885  37902.000000  0      81016.097   2050537.606   6564958.679
10 0 59885  38022.000000  0     455643.259   1230654.093   6751456.142
10 0 59885  38142.000000  0     807728.992    382938.136   6819318.697
10 0 59885  38262.000000  0    1130777.874   -477367.687   6767360.215
10 0 59885  38382.000000  0    1419068.950  -1334694.324   6596486.152
10 0 59885  38502.000000  0    1667757.176  -2173427.554   6309678.916
10 0 59885  38622.000000  0    1872955.316  -2978192.598   5911949.800
10 0 59885  38742.000000  0    2031795.213  -3734138.125   5410256.401
10 0 59885  38862.000000  0    2142467.069  -4427213.620   4813385.888
10 0 59885  38982.000000  0    2204236.635  -5044434.942   4131806.939
10 0 59885  39102.000000  0    2217441.080  -5574135.818   3377490.954
10 0 59885  39222.000000  0    2183460.229  -6006197.471   2563702.630
10 0 59885  39342.000000  0    2104665.022  -6332250.200   1704765.161
10 0 59885  39462.000000  0    1984346.006  -6545842.018    815804.651
10 0 59885  39582.000000  0    1826621.414  -6642572.332    -87521.725
10 0 59885  39702.000000  0    1636327.936  -6620186.686   -989309.984
10 0 59885  39822.000000  0    1418895.000  -6478625.531  -1873700.990
10 0 59885  39942.000000  0    1180206.932  -6220027.714  -2725166.683
10 0 59885  40062.000000  0     926458.157  -5848689.881  -3528789.022
10 0 59885  40182.000000  0     664006.071  -5370983.399  -4270523.179
10 0 59885  40302.000000  0     399222.385  -4795232.629  -4937441.693
10 0 59885  40422.000000  0     138347.984  -4131557.624  -5517954.157
10 0 59885  40542.000000  0    -112645.363  -3391685.750  -6002000.547
10 0 59885  40662.000000  0    -348183.705  -2588736.293  -6381214.861
10 0 59885  40782.000000  0    -563207.538  -1736983.450  -6649058.171
10 0 59885  40902.000000  0    -753274.569   -851602.355  -6800920.353
10 0 59885  41022.000000  0    -914646.792     51598.303  -6834191.507
10 0 59885  41142.000000  0   -1044360.827    956453.120  -6748300.711
10 0 59885  41262.000000  0   -1140280.858   1846721.533  -6544724.448
10 0 59885  41382.000000  0   -1201133.168   2706371.734  -6226963.790
10 0 59885  41502.000000  0   -1226521.981   3519863.709  -5800492.356
10 0 59885  41622.000000  0   -1216926.674   4272428.199  -5272671.642
10 0 59885  41742.000000  0   -1173679.670   4950335.795  -4652635.595
10 0 59885  41862.000000  0   -1098926.063   5541153.106  -3951143.616
10 0 59885  41982.000000  0    -995564.740   6033978.997  -3180402.653
10 0 59885  42102.000000  0    -867172.033   6419655.806  -2353861.945
10 0 59885  42222.000000  0    -717909.302   6690952.117  -1485982.292
10 0 59885  42342.000000  0    -552416.787   6842710.056   -591982.771
10 0 59885  42462.000000  0    -375695.292   6871954.424    312429.172
10 0 59885  42582.000000  0    -192978.759   6777959.729   1211340.710
10 0 59885  42702.000000  0      -9601.785   6562270.877   2088923.842
10 0 59885  42822.000000  0     169134.396   6228675.858   2929723.186
10 0 59885  42942.000000  0     338094.444   5783134.643   3718934.606
10 0 59885  43062.000000  0     492437.195   5233667.660   4442670.691
10 0 59885  43182.000000  0     627735.820   4590202.616   5088212.730
10 0 59885  43302.000000  0     740086.538   3864379.850   5644231.696
10 0 59885  43422.000000  0     826205.189   3069334.869   6100982.556
10 0 59885  43542.000000  0     883507.764   2219452.615   6450471.011
10 0 59885  43662.000000  0     910173.543   1330101.562   6686587.443
10 0 59885  43782.000000  0     905190.603    417352.081   6805207.731
10 0 59885  43902.000000  0     868382.618   -502313.937   6804259.975
10 0 59885  44022.000000  0     800416.257  -1412299.767   6683759.829
10 0 59885  44142.000000  0     702789.073  -2296193.400   6445810.635
10 0 59885  44262.000000  0     577798.000  -3138064.058   6094569.694
10 0 59885  44382.000000  0     428488.767  -3922751.625   5636178.118
10 0 59885  44502.000000  0     258588.200  -4636140.703   5078657.833
10 0 59885  44622.000000  0      72420.603  -5265418.845   4431778.754
10 0 59885  44742.000000  0    -125191.552  -5799316.249   3706894.144
10 0 59885  44862.000000  0    -329041.348  -6228318.114   2916743.757
10 0 59885  44982.000000  0    -533661.836  -6544844.642   2075229.673
10 0 59885  45102.000000  0    -733457.972  -6743393.120   1197168.991
10 0 59885  45222.000000  0    -922843.871  -6820642.781    298028.047
10 0 59885  45342.000000  0   -1096381.961  -6775514.366   -606359.824
10 0 59885  45462.000000  0   -1248918.674  -6609182.778  -1500082.519
10 0 59885  45582.000000  0   -1375714.001  -6325044.795  -2367437.123
10 0 59885  45702.000000  0   -1472562.399  -5928643.435  -3193212.274
10 0 59885  45822.000000  0   -1535901.807  -5427550.078  -3962959.549
10 0 59885  45942.000000  0   -1562907.703  -4831207.324  -4663246.931
10 0 59885  46062.000000  0   -1551570.128  -4150738.763  -5281888.928
10 0 59885  46182.000000  0   -1500752.638  -3398731.468  -5808151.159
10 0 59885  46302.000000  0   -1410231.926  -2588995.696  -6232927.324
10 0 59885  46422.000000  0   -1280717.543  -1736306.249  -6548885.888
10 0 59885  46542.000000  0   -1113851.997   -856131.933  -6750584.749
10 0 59885  46662.000000  0    -912191.777     35642.188  -6834555.101
10 0 59885  46782.000000  0    -679168.528    922995.904  -6799353.845
10 0 59885  46902.000000  0    -419031.365   1790053.970  -6645585.304
10 0 59885  47022.000000  0    -136772.252   2621362.504  -6375892.051
10 0 59885  47142.000000  0     161966.015   3402159.037  -5994916.262
10 0 59885  47262.000000  0     470998.941   4118632.904  -5509228.384
10 0 59885  47382.000000  0     783723.025   4758169.496  -4927223.967
10 0 59885  47502.000000  0    1093250.891   5309577.161  -4258990.679
10 0 59885  47622.000000  0    1392557.090   5763291.601  -3516143.579
10 0 59885  47742.000000  0    1674631.113   6111551.981  -2711631.409
10 0 59885  47862.000000  0    1932634.492   6348545.970  -1859516.308
10 0 59885  47982.000000  0    2160058.638   6470519.204   -974729.011
10 0 59885  48102.000000  0    2350879.230   6475844.511    -72803.890
10 0 59885  48222.000000  0    2499702.785   6365048.598    830399.767
10 0 59885  48342.000000  0    2601901.734   6140795.655   1718983.961
10 0 59885  48462.000000  0    2653734.536   5807828.287   2577299.958
10 0 59885  48582.000000  0    2652448.004   5372867.237   3390231.817
10 0 59885  48702.000000  0    2596359.367   4844471.957   4143469.686
10 0 59885  48822.000000  0    2484915.148   4232865.914   4823767.915
10 0 59885  48942.000000  0    2318723.866   3549727.489   5419180.130
10 0 59885  49062.000000  0    2099565.219   2807958.454   5919264.646
10 0 59885  49182.000000  0    1830376.260   2021434.702   6315263.446
10 0 59885  49302.000000  0    1515212.374   1204741.173   6600251.125
10 0 59885  49422.000000  0    1159184.844    372897.447   6769249.036
10 0 59885  49542.000000  0     768377.134   -458918.077   6819306.008
10 0 59885  49662.000000  0     349740.734  -1275644.378   6749548.429
10 0 59885  49782.000000  0     -89028.771  -2062610.867   6561194.713
10 0 59885  49902.000000  0    -539633.277  -2805801.033   6257535.034
10 0 59885  50022.000000  0    -993327.990  -3492103.114   5843875.671
10 0 59885  50142.000000  0   -1441088.117  -4109542.021   5327450.659
10 0 59885  50262.000000  0   -1873786.808  -4647492.146   4717303.752
10 0 59885  50382.000000  0   -2282381.710  -5096868.099   4024137.448
10 0 59885  50502.000000  0   -2658104.942  -5450287.732   3260128.744
10 0 59885  50622.000000  0   -2992650.924  -5702200.913   2438714.771
10 0 59885  50742.000000  0   -3278358.174  -5848982.462   1574354.715
10 0 59885  50862.000000  0   -3508381.365  -5888987.928    682270.954
10 0 59885  50982.000000  0   -3676849.076  -5822569.664   -221825.800
10 0 59885  51102.000000  0   -3779003.184  -5652052.881  -1122021.598
10 0 59885  51222.000000  0   -3811315.998  -5381671.270  -2002488.798
10 0 59885  51342.000000  0   -3771582.124  -5017463.748  -2847772.604
10 0 59885  51462.000000  0   -3658982.625  -4567135.650  -3643068.083
10 0 59885  51582.000000  0   -3474120.022  -4039889.002  -4374481.180
10 0 59885  51702.000000  0   -3219024.648  -3446227.450  -5029269.093
10 0 59885  51822.000000  0   -2897132.735  -2797740.269  -5596056.623
10 0 59885  51942.000000  0   -2513237.386  -2106870.951  -6065024.813
10 0 59885  52062.000000  0   -2073413.643  -1386675.831  -6428070.998
10 0 59885  52182.000000  0   -1584918.651   -650576.631  -6678937.521
10 0 59885  52302.000000  0   -1056070.564     87887.322  -6813307.560
10 0 59885  52422.000000  0    -496108.730    815302.415  -6828870.482
99
